0 WESTAR 4
1 13069U 82014A   13280.36791298  .00000076  00000-0  10000-3 0  4489
2 13069 014.6733 017.8474 0005789 143.2258 216.8188 00.99767392 79541
0 WESTAR 4
1 13069U 82014A   13284.37704722  .00000081  00000-0  10000-3 0  4497
2 13069 014.6769 017.8038 0005795 142.7406 217.3000 00.99768683 79589
0 WESTAR 4
1 13069U 82014A   13286.38158971  .00000080  00000-0  10000-3 0  4500
2 13069 014.6787 017.7819 0005835 142.4200 217.6169 00.99769414 79604
0 WESTAR 4
1 13069U 82014A   13293.39734088  .00000068  00000-0  10000-3 0  4515
2 13069 014.6850 017.7053 0005982 140.1606 219.8630 00.99772337 79675
